[{"OBJECT_NAME":"STARLINK-5617","OBJECT_ID":"2023-028N","EPOCH":"2026-03-09T21:46:53.334336","MEAN_MOTION":14.98332824,"ECCENTRICITY":0.00025577,"INCLINATION":69.9992,"RA_OF_ASC_NODE":243.8711,"ARG_OF_PERICENTER":268.1426,"MEAN_ANOMALY":91.9441,"EPHEMERIS_TYPE":0,"CLASSIFICATION_TYPE":"U","NORAD_CAT_ID":55753,"ELEMENT_SET_NO":999,"REV_AT_EPOCH":16607,"BSTAR":2.9104575e-5,"MEAN_MOTION_DOT":2.54e-6,"MEAN_MOTION_DDOT":0},{"OBJECT_NAME":"DELTA 1 DEB","OBJECT_ID":"1978-026DN","EPOCH":"2026-03-09T22:54:01.614240","MEAN_MOTION":14.93139428,"ECCENTRICITY":0.00397584,"INCLINATION":98.1052,"RA_OF_ASC_NODE":65.3894,"ARG_OF_PERICENTER":90.2844,"MEAN_ANOMALY":324.2277,"EPHEMERIS_TYPE":0,"CLASSIFICATION_TYPE":"U","NORAD_CAT_ID":12269,"ELEMENT_SET_NO":999,"REV_AT_EPOCH":37927,"BSTAR":0.0013156462,"MEAN_MOTION_DOT":0.00013895,"MEAN_MOTION_DDOT":0}]
